STARLINK-5116           
1 54014U 22125BC  22288.58334491 -.00025990  00000+0 -18178-3 0  9999
2 54014  53.2243  43.9539 0002051  39.0424 196.5610 15.73140222  1891
STARLINK-5055           
1 54015U 22125BD  22288.58334491 -.00556735  00000+0 -41877-2 0  9997
2 54015  53.2201  43.9463 0001494  17.9123 219.0528 15.73438293  1890
FALCON 9 DEB            
1 54016U 22125BE  22288.50413017  .00291284  42979-4  86802-3 0  9999
2 54016  53.2332  43.9149 0009442 325.9158  34.1263 15.91898280  1830
FALCON 9 DEB            
1 54017U 22125BF  22288.50120517  .00333570  53585-4  95388-3 0  9999
2 54017  53.2324  43.8951 0007322 325.6926  34.3629 15.92694632  1831
FALCON 9 DEB            
1 54018U 22125BG  22288.49436606  .00354650  60157-4  93984-3 0  9992
2 54018  53.2280  43.8434 0010001 302.6950  57.3114 15.94079706  1834
FALCON 9 DEB            
1 54019U 22125BH  22288.49285245  .00323267  51715-4  85585-3 0  9992
2 54019  53.2266  43.8306 0007772 287.9840  72.0342 15.94150728  1832
CENTISPACE-1 S5         
1 54020U 22126A   22288.47910765  .00006072  00000+0  13518-2 0  9999
2 54020  55.0001 155.3999 0012614 311.8596  48.1274 14.57928360  1161
CENTISPACE-1 S6         
1 54021U 22126B   22288.61495279  .00002818  00000+0  64567-3 0  9999
2 54021  54.9984 154.8436 0014475 311.3220  48.8447 14.58140589  1176
CZ-11H R/B              
1 54022U 22126C   22288.35925965  .00031041  00000+0  54041-3 0  9997
2 54022  56.1485 154.3111 0339523 327.3527  30.6931 15.06076548  1177
GAZELLE                 
1 54023U 22127A   22288.44814590 -.00000043  00000+0  00000+0 0  9991
2 54023  98.3143 287.6178 0012363 275.9708  84.0113 14.41642806  1112
ELECTRON KICK STAGE R/B 
1 54024U 22127B   22288.55890392  .00005466  00000+0  73981-3 0  9993
2 54024  98.2931 288.0828 0141531 357.4018   2.6417 14.72653743  1146
ELECTRON R/B            
1 54025U 22127C   22288.60329149  .00150418  68146-5  15085-2 0  9996
2 54025  98.3335 288.7622 0347425 191.7950 167.5006 15.16206220  1192
2022-128A               
1 54026U 22128A   22287.80000000 -.00000201  00000+0  00000+0 0  9993
2 54026  26.5320 192.1410 7254180 180.3880  46.4950  2.27885768   258
2022-128B               
1 54027U 22128B   22287.70000000 -.00000102  00000+0  00000+0 0  9993
2 54027  26.5810 191.7400 7060108 180.5950 346.6400  2.52590896   227
2022-128C               
1 54028U 22128C   22288.26336610 -.00000725  00000+0 -18779-3 0  9993
2 54028  26.8461 190.3937 5936648 183.3118 317.6436  4.11939615   252
ASO-S                   
1 54029U 22129A   22288.51703292 -.00001796  00000+0 -44411-3 0  9998
2 54029  98.2675 293.9193 0013564 247.0980 112.8845 14.50848586   956
CZ-2D R/B               
1 54030U 22129B   22288.56834792  .00000389  00000+0  10089-3 0  9994
2 54030  98.1945 293.8854 0019633  96.0347 264.3086 14.54801049   960
COSMOS 2559 [GLONASS-K] 
1 54031U 22130A   22287.39487059 -.00000090  00000+0  00000+0 0  9995
2 54031  64.7801   1.5135 0002004 330.3772  13.5624  2.12836767    88
FREGAT R/B              
1 54032U 22130B   22284.14949806 -.00000087  00000+0  00000+0 0  9995
2 54032  64.8932   1.6824 0035362 228.7163 143.8243  2.11225083    06
ANGOSAT 2               
1 54033U 22131A   22288.65769877  .00000056  00000+0  00000+0 0  9990
2 54033   0.0274 345.8743 0001710 102.8339 246.3786  0.98860347    33
HJ-2E                   
1 54035U 22132A   22288.58547429  .00013432  00000+0  56186-3 0  9994
2 54035  97.3948 294.1039 0011798 263.0999 247.5887 15.23642225   396
2022-132B               
1 54036U 22132B   22288.50751744  .00153387  00000+0  48761-2 0  9997
2 54036  97.3564 294.0496 0035273 318.3312 192.8291 15.31392192   388
2022-132C               
1 54037U 22132C   22288.49942296  .00016925  00000+0  16492-2 0  9992
2 54037  97.6509 293.8875 0189319 163.2758 197.4845 14.79991458   388
2022-132D               
1 54038U 22132D   22288.64182102  .00047106  00000+0  23370-2 0  9990
2 54038  97.5879 294.1479 0099609 224.3620 134.9640 15.13231493   408
CZ-2C R/B               
1 54039U 22132E   22288.52699584  .00005850  00000+0  30290-3 0  9995
2 54039  97.2512 293.7898 0047090 202.2081 273.9492 15.15600926   382
2022-132F               
1 54040U 22132F   22288.58674824  .00038094  00000+0  21449-2 0  9994
2 54040  97.1592 294.0073 0122960 214.8835 144.4303 15.06820605   398
2022-132G               
1 54041U 22132G   22288.61931590  .00019178  00000+0  16653-2 0  9998
2 54041  97.1913 293.9717 0151360 160.1387 200.5808 14.88558452   391
2022-133A               
1 54042U 22133A   22288.46084597 -.00000038  00000+0  00000+0 0  9991
2 54042  34.9981 282.5901 0009143 274.6884 222.4140 15.24413863   107
2022-133B               
1 54043U 22133B   22288.45940547 -.00000038  00000+0  00000+0 0  9997
2 54043  34.9976 282.5932 0009078 281.4606 208.2804 15.24649628   100
2022-133C               
1 54044U 22133C   22288.45951884 -.00000038  00000+0  00000+0 0  9994
2 54044  34.9988 282.5930 0009675 282.7517 207.7680 15.24719333   107
2022-133D               
1 54045U 22133D   22288.66099650 -.00000038  00000+0  00000+0 0  9992
2 54045  34.9975 281.3217 0009147 291.5973 227.3621 15.24948831   130
2022-133E               
1 54046U 22133E   22288.66277428 -.00000038  00000+0  00000+0 0  9994
2 54046  34.9971 281.3142 0008078 273.4103 253.1767 15.24251578   133
2022-134A               
1 54048U 22134A   22288.61185514 -.00013723  00000+0 -79238-1 0  9993
2 54048  26.8648 300.7972 8041878 180.1650 179.0464  1.34908411    04
2022-134B               
1 54049U 22134B   22288.61357296  .01109464  00000+0  51394+1 0  9991
2 54049  26.8705 300.8246 8047843 180.1571 179.2343  1.34880981    03
